[{"OBJECT_NAME":"STARLINK-3903","OBJECT_ID":"2022-049M","EPOCH":"2026-03-09T04:56:35.379456","MEAN_MOTION":15.08837746,"ECCENTRICITY":0.00015433,"INCLINATION":53.2174,"RA_OF_ASC_NODE":61.3034,"ARG_OF_PERICENTER":88.7314,"MEAN_ANOMALY":271.3855,"EPHEMERIS_TYPE":0,"CLASSIFICATION_TYPE":"U","NORAD_CAT_ID":52462,"ELEMENT_SET_NO":999,"REV_AT_EPOCH":21217,"BSTAR":8.055652e-6,"MEAN_MOTION_DOT":-1.6e-6,"MEAN_MOTION_DDOT":0},{"OBJECT_NAME":"OBJECT T","OBJECT_ID":"2018-099T","EPOCH":"2026-03-09T14:32:29.418720","MEAN_MOTION":15.09436097,"ECCENTRICITY":0.0004517,"INCLINATION":97.4347,"RA_OF_ASC_NODE":115.9313,"ARG_OF_PERICENTER":320.9739,"MEAN_ANOMALY":39.1164,"EPHEMERIS_TYPE":0,"CLASSIFICATION_TYPE":"U","NORAD_CAT_ID":43775,"ELEMENT_SET_NO":999,"REV_AT_EPOCH":39729,"BSTAR":0.00032877,"MEAN_MOTION_DOT":5.2e-5,"MEAN_MOTION_DDOT":0}]
